{
  "type": "FeatureCollection",
  "features": [
    {
      "type": "Feature",
      "properties": {
        "barrio": "villareal"
      },
      "geometry": {
        "type": "Point",
        "coordinates": [
          -58.525326453078726,
          -34.6192433500093
        ]
      }
    },
    {
      "type": "Feature",
      "properties": {
        "barrio": "liniers"
      },
      "geometry": {
        "type": "Point",
        "coordinates": [
          -58.519788542158196,
          -34.6449572330786
        ]
      }
    },
    {
      "type": "Feature",
      "properties": {
        "barrio": "villadevoto"
      },
      "geometry": {
        "type": "Point",
        "coordinates": [
          -58.5132182578292,
          -34.60241235000237
        ]
      }
    },
    {
      "type": "Feature",
      "properties": {
        "barrio": "mataderos"
      },
      "geometry": {
        "type": "Point",
        "coordinates": [
          -58.496758320388615,
          -34.65822241023505
        ]
      }
    },
    {
      "type": "Feature",
      "properties": {
        "barrio": "villaluro"
      },
      "geometry": {
        "type": "Point",
        "coordinates": [
          -58.502665902904,
          -34.63604004870295
        ]
      }
    },
    {
      "type": "Feature",
      "properties": {
        "barrio": "villapueyrredon"
      },
      "geometry": {
        "type": "Point",
        "coordinates": [
          -58.50547077649587,
          -34.584270204254544
        ]
      }
    },
    {
      "type": "Feature",
      "properties": {
        "barrio": "montecastro"
      },
      "geometry": {
        "type": "Point",
        "coordinates": [
          -58.50371109373785,
          -34.61899650916303
        ]
      }
    },
    {
      "type": "Feature",
      "properties": {
        "barrio": "villaurquiza"
      },
      "geometry": {
        "type": "Point",
        "coordinates": [
          -58.48843625802285,
          -34.57228251910138
        ]
      }
    },
    {
      "type": "Feature",
      "properties": {
        "barrio": "saavedra"
      },
      "geometry": {
        "type": "Point",
        "coordinates": [
          -58.485627699942704,
          -34.55230510784031
        ]
      }
    },
    {
      "type": "Feature",
      "properties": {
        "barrio": "velezsarsfield"
      },
      "geometry": {
        "type": "Point",
        "coordinates": [
          -58.490197922230735,
          -34.63524523683352
        ]
      }
    },
    {
      "type": "Feature",
      "properties": {
        "barrio": "agronomia"
      },
      "geometry": {
        "type": "Point",
        "coordinates": [
          -58.492570681503736,
          -34.59300201953538
        ]
      }
    },
    {
      "type": "Feature",
      "properties": {
        "barrio": "floresta"
      },
      "geometry": {
        "type": "Point",
        "coordinates": [
          -58.48930893517938,
          -34.62788592071555
        ]
      }
    },
    {
      "type": "Feature",
      "properties": {
        "barrio": "villadelparque"
      },
      "geometry": {
        "type": "Point",
        "coordinates": [
          -58.48726443568751,
          -34.60559576375701
        ]
      }
    },
    {
      "type": "Feature",
      "properties": {
        "barrio": "villalugano"
      },
      "geometry": {
        "type": "Point",
        "coordinates": [
          -58.47008375690017,
          -34.67782734165647
        ]
      }
    },
    {
      "type": "Feature",
      "properties": {
        "barrio": "barriopiedrabuena"
      },
      "geometry": {
        "type": "Point",
        "coordinates": [
          -58.49111903773996,
          -34.67870411977956
        ]
      }
    },
    {
      "type": "Feature",
      "properties": {
        "barrio": "parqueavellaneda"
      },
      "geometry": {
        "type": "Point",
        "coordinates": [
          -58.483373889435086,
          -34.646271431167996
        ]
      }
    },
    {
      "type": "Feature",
      "properties": {
        "barrio": "villasantarita"
      },
      "geometry": {
        "type": "Point",
        "coordinates": [
          -58.48369155365933,
          -34.61570798081754
        ]
      }
    },
    {
      "type": "Feature",
      "properties": {
        "barrio": "flores"
      },
      "geometry": {
        "type": "Point",
        "coordinates": [
          -58.459676893828494,
          -34.63954419705825
        ]
      }
    },
    {
      "type": "Feature",
      "properties": {
        "barrio": "coghlan"
      },
      "geometry": {
        "type": "Point",
        "coordinates": [
          -58.47542451455242,
          -34.561486426003846
        ]
      }
    },
    {
      "type": "Feature",
      "properties": {
        "barrio": "lapaternal"
      },
      "geometry": {
        "type": "Point",
        "coordinates": [
          -58.467924559825505,
          -34.59731675258508
        ]
      }
    },
    {
      "type": "Feature",
      "properties": {
        "barrio": "villaortuzar"
      },
      "geometry": {
        "type": "Point",
        "coordinates": [
          -58.467366123981485,
          -34.58160849453268
        ]
      }
    },
    {
      "type": "Feature",
      "properties": {
        "barrio": "floressur"
      },
      "geometry": {
        "type": "Point",
        "coordinates": [
          -58.47051593182758,
          -34.622215522165035
        ]
      }
    },
    {
      "type": "Feature",
      "properties": {
        "barrio": "nunez"
      },
      "geometry": {
        "type": "Point",
        "coordinates": [
          -58.464339092084856,
          -34.545398136287446
        ]
      }
    },
    {
      "type": "Feature",
      "properties": {
        "barrio": "belgranor"
      },
      "geometry": {
        "type": "Point",
        "coordinates": [
          -58.467482191135616,
          -34.57084430929008
        ]
      }
    },
    {
      "type": "Feature",
      "properties": {
        "barrio": "belgrano"
      },
      "geometry": {
        "type": "Point",
        "coordinates": [
          -58.45154588899112,
          -34.5600936649197
        ]
      }
    },
    {
      "type": "Feature",
      "properties": {
        "barrio": "caballito"
      },
      "geometry": {
        "type": "Point",
        "coordinates": [
          -58.44514975193641,
          -34.61514825236311
        ]
      }
    },
    {
      "type": "Feature",
      "properties": {
        "barrio": "chacarita"
      },
      "geometry": {
        "type": "Point",
        "coordinates": [
          -58.451825031113714,
          -34.588143798070135
        ]
      }
    },
    {
      "type": "Feature",
      "properties": {
        "barrio": "colegiales"
      },
      "geometry": {
        "type": "Point",
        "coordinates": [
          -58.450882384487656,
          -34.575799647952344
        ]
      }
    },
    {
      "type": "Feature",
      "properties": {
        "barrio": "floresnorte"
      },
      "geometry": {
        "type": "Point",
        "coordinates": [
          -58.46137379967115,
          -34.621167332860715
        ]
      }
    },
    {
      "type": "Feature",
      "properties": {
        "barrio": "villacrespo"
      },
      "geometry": {
        "type": "Point",
        "coordinates": [
          -58.44352006385704,
          -34.59871326605256
        ]
      }
    },
    {
      "type": "Feature",
      "properties": {
        "barrio": "parquechacabuco"
      },
      "geometry": {
        "type": "Point",
        "coordinates": [
          -58.436563253743316,
          -34.637223429628484
        ]
      }
    },
    {
      "type": "Feature",
      "properties": {
        "barrio": "bajobelgrano"
      },
      "geometry": {
        "type": "Point",
        "coordinates": [
          -58.44428699071238,
          -34.55251514402372
        ]
      }
    },
    {
      "type": "Feature",
      "properties": {
        "barrio": "belgranoc"
      },
      "geometry": {
        "type": "Point",
        "coordinates": [
          -58.44427632742373,
          -34.56307511586726
        ]
      }
    },
    {
      "type": "Feature",
      "properties": {
        "barrio": "palermohollywood"
      },
      "geometry": {
        "type": "Point",
        "coordinates": [
          -58.43819931109183,
          -34.582805714382815
        ]
      }
    },
    {
      "type": "Feature",
      "properties": {
        "barrio": "lascanitas"
      },
      "geometry": {
        "type": "Point",
        "coordinates": [
          -58.434647459844484,
          -34.56851263929862
        ]
      }
    },
    {
      "type": "Feature",
      "properties": {
        "barrio": "palermo"
      },
      "geometry": {
        "type": "Point",
        "coordinates": [
          -58.41979060118065,
          -34.58130819725798
        ]
      }
    },
    {
      "type": "Feature",
      "properties": {
        "barrio": "palermosoho"
      },
      "geometry": {
        "type": "Point",
        "coordinates": [
          -58.43083817440114,
          -34.588560800842714
        ]
      }
    },
    {
      "type": "Feature",
      "properties": {
        "barrio": "parquecentenario"
      },
      "geometry": {
        "type": "Point",
        "coordinates": [
          -58.43200764413325,
          -34.60292356664879
        ]
      }
    },
    {
      "type": "Feature",
      "properties": {
        "barrio": "almagro"
      },
      "geometry": {
        "type": "Point",
        "coordinates": [
          -58.42131743085337,
          -34.6094422972276
        ]
      }
    },
    {
      "type": "Feature",
      "properties": {
        "barrio": "nuevapompeya"
      },
      "geometry": {
        "type": "Point",
        "coordinates": [
          -58.41630876824818,
          -34.651688573031365
        ]
      }
    },
    {
      "type": "Feature",
      "properties": {
        "barrio": "boedo"
      },
      "geometry": {
        "type": "Point",
        "coordinates": [
          -58.41776526407904,
          -34.62965538264526
        ]
      }
    },
    {
      "type": "Feature",
      "properties": {
        "barrio": "palermonuevo"
      },
      "geometry": {
        "type": "Point",
        "coordinates": [
          -58.425312876639964,
          -34.577856125594735
        ]
      }
    },
    {
      "type": "Feature",
      "properties": {
        "barrio": "parquepatricios"
      },
      "geometry": {
        "type": "Point",
        "coordinates": [
          -58.404111271752,
          -34.63971756579454
        ]
      }
    },
    {
      "type": "Feature",
      "properties": {
        "barrio": "recoleta"
      },
      "geometry": {
        "type": "Point",
        "coordinates": [
          -58.39722045286745,
          -34.59023716697158
        ]
      }
    },
    {
      "type": "Feature",
      "properties": {
        "barrio": "balvanera"
      },
      "geometry": {
        "type": "Point",
        "coordinates": [
          -58.4030474981372,
          -34.6073728778182
        ]
      }
    },
    {
      "type": "Feature",
      "properties": {
        "barrio": "sancristobal"
      },
      "geometry": {
        "type": "Point",
        "coordinates": [
          -58.402320061348455,
          -34.62315522045086
        ]
      }
    },
    {
      "type": "Feature",
      "properties": {
        "barrio": "palermochico"
      },
      "geometry": {
        "type": "Point",
        "coordinates": [
          -58.407334888079426,
          -34.57718337405283
        ]
      }
    },
    {
      "type": "Feature",
      "properties": {
        "barrio": "barrioparque"
      },
      "geometry": {
        "type": "Point",
        "coordinates": [
          -58.40148870308987,
          -34.5773980935872
        ]
      }
    },
    {
      "type": "Feature",
      "properties": {
        "barrio": "barracas"
      },
      "geometry": {
        "type": "Point",
        "coordinates": [
          -58.38192179569437,
          -34.645191911489576
        ]
      }
    },
    {
      "type": "Feature",
      "properties": {
        "barrio": "congreso"
      },
      "geometry": {
        "type": "Point",
        "coordinates": [
          -58.39036847563262,
          -34.6097809647604
        ]
      }
    },
    {
      "type": "Feature",
      "properties": {
        "barrio": "sannicolas"
      },
      "geometry": {
        "type": "Point",
        "coordinates": [
          -58.38009940929395,
          -34.60443728722038
        ]
      }
    },
    {
      "type": "Feature",
      "properties": {
        "barrio": "constitucion"
      },
      "geometry": {
        "type": "Point",
        "coordinates": [
          -58.386007389504925,
          -34.625980856896085
        ]
      }
    },
    {
      "type": "Feature",
      "properties": {
        "barrio": "monserrat"
      },
      "geometry": {
        "type": "Point",
        "coordinates": [
          -58.381004986887724,
          -34.61370973048011
        ]
      }
    },
    {
      "type": "Feature",
      "properties": {
        "barrio": "tribunales"
      },
      "geometry": {
        "type": "Point",
        "coordinates": [
          -58.38746298566885,
          -34.600579180352184
        ]
      }
    },
    {
      "type": "Feature",
      "properties": {
        "barrio": "retiro"
      },
      "geometry": {
        "type": "Point",
        "coordinates": [
          -58.37672918154505,
          -34.59008101020664
        ]
      }
    },
    {
      "type": "Feature",
      "properties": {
        "barrio": "santelmo"
      },
      "geometry": {
        "type": "Point",
        "coordinates": [
          -58.3721855902048,
          -34.61935925757669
        ]
      }
    },
    {
      "type": "Feature",
      "properties": {
        "barrio": "laboca"
      },
      "geometry": {
        "type": "Point",
        "coordinates": [
          -58.362393246085574,
          -34.63538510680351
        ]
      }
    }
  ]
}